[
    {
        "Altitude(m)": 611967.1801316299,
        "Argument of Periapsis(deg)": 0.0,
        "Eccentricity": 0.0,
        "Inclination(deg)": 60.0,
        "Latitude(deg)": 59.14016521214492,
        "Longitude(deg)": 11.091893532898156,
        "Mean Anomaly(deg)": 98.18179999999998,
        "RAAN(deg)": 5.0,
        "Satellite Name": "Test1 28",
        "Satellite Number": 28,
        "Semi-Major Axis(m)": 6980739.136638005,
        "Time(s)": 0
    },
    {
        "Altitude(m)": 611934.3806359062,
        "Argument of Periapsis(deg)": 0.00010418945913296404,
        "Eccentricity": 0.0,
        "Inclination(deg)": 60.0,
        "Latitude(deg)": 58.98652932520579,
        "Longitude(deg)": 12.215140409307772,
        "Mean Anomaly(deg)": 98.80190614546183,
        "RAAN(deg)": 4.999579950860257,
        "Satellite Name": "Test1 28",
        "Satellite Number": 28,
        "Semi-Major Axis(m)": 6980739.136638005,
        "Time(s)": 10
    }
]